GLOBALSTAR M001 [-]     
1 25162U 98008A   23305.65123149 -.00000041  00000+0  42800-3 0  9997
2 25162  52.0029 260.6951 0002106  71.5515  99.7450 12.38170016170290
GLOBALSTAR M004 [-]     
1 25163U 98008B   23305.62312889 -.00000088  00000+0  90740-4 0  9994
2 25163  52.0000  64.8964 0003517  63.3676 310.7097 12.63341171186663
GLOBALSTAR M002 [-]     
1 25164U 98008C   23305.28010605 -.00000075  00000+0  31406-4 0  9998
2 25164  52.0012 289.3100 0001345 119.3266 240.7689 11.61496798115054
GLOBALSTAR M003 [-]     
1 25165U 98008D   23305.70297890  .00000042  00000+0  14029-2 0  9992
2 25165  51.9790  12.3420 0008213 176.4253   1.0742 12.11949355161345
GLOBALSTAR M014 [-]     
1 25306U 98023A   23305.48738663 -.00000035  00000+0  79418-3 0  9996
2 25306  51.9832 224.4929 0001401  22.6964 149.6030 11.65461596121947
GLOBALSTAR M006 [-]     
1 25307U 98023B   23305.27868105 -.00000028  00000+0  97681-3 0  9993
2 25307  51.9930 255.2969 0003760 111.6882  37.4995 11.58156024148011
GLOBALSTAR M015 [-]     
1 25308U 98023C   23305.78353899 -.00000002  00000+0  16250-2 0  9993
2 25308  51.9840 325.3241 0012525 100.3870  70.1743 11.48856695126252
GLOBALSTAR M008 [-]     
1 25309U 98023D   23305.43382372 -.00000096  00000+0  22660-5 0  9992
2 25309  51.9946 119.4352 0002728  25.6680 346.6155 12.36030514164428
